CCSDS_OMM_VERS = 2.0
CREATION_DATE  = 
ORIGINATOR     = 

OBJECT_NAME    = SL-3 R/B
OBJECT_ID      = 1988-032B
CENTER_NAME    = EARTH
REF_FRAME      = TEME
TIME_SYSTEM    = UTC
MEAN_ELEMENT_THEORY = SGP/SGP4

EPOCH          = 2026-03-25T14:21:05.918688
MEAN_MOTION    = 15.20080524
ECCENTRICITY   = .00259649
INCLINATION    = 97.5214
RA_OF_ASC_NODE = 67.7969
ARG_OF_PERICENTER = 174.4060
MEAN_ANOMALY   = 185.7470

EPHEMERIS_TYPE = 0
CLASSIFICATION_TYPE = U
NORAD_CAT_ID   = 19046
ELEMENT_SET_NO = 999
REV_AT_EPOCH   = 5452
BSTAR          = .2230813E-3
MEAN_MOTION_DOT = .4787E-4
MEAN_MOTION_DDOT = 0

CCSDS_OMM_VERS = 2.0
CREATION_DATE  = 
ORIGINATOR     = 

OBJECT_NAME    = SL-16 R/B
OBJECT_ID      = 1988-039B
CENTER_NAME    = EARTH
REF_FRAME      = TEME
TIME_SYSTEM    = UTC
MEAN_ELEMENT_THEORY = SGP/SGP4

EPOCH          = 2026-03-25T13:15:39.594240
MEAN_MOTION    = 14.19618060
ECCENTRICITY   = .00235298
INCLINATION    = 71.0161
RA_OF_ASC_NODE = 35.0036
ARG_OF_PERICENTER = 311.5493
MEAN_ANOMALY   = 48.3614

EPHEMERIS_TYPE = 0
CLASSIFICATION_TYPE = U
NORAD_CAT_ID   = 19120
ELEMENT_SET_NO = 999
REV_AT_EPOCH   = 96063
BSTAR          = .58882851E-4
MEAN_MOTION_DOT = .76E-6
MEAN_MOTION_DDOT = 0

CCSDS_OMM_VERS = 2.0
CREATION_DATE  = 
ORIGINATOR     = 

OBJECT_NAME    = COSMOS 1953
OBJECT_ID      = 1988-050A
CENTER_NAME    = EARTH
REF_FRAME      = TEME
TIME_SYSTEM    = UTC
MEAN_ELEMENT_THEORY = SGP/SGP4

EPOCH          = 2026-03-25T14:20:36.760416
MEAN_MOTION    = 15.28771621
ECCENTRICITY   = .0012514
INCLINATION    = 82.5080
RA_OF_ASC_NODE = 142.2460
ARG_OF_PERICENTER = 72.9317
MEAN_ANOMALY   = 287.3293

EPHEMERIS_TYPE = 0
CLASSIFICATION_TYPE = U
NORAD_CAT_ID   = 19210
ELEMENT_SET_NO = 999
REV_AT_EPOCH   = 4021
BSTAR          = .22523974E-3
MEAN_MOTION_DOT = .6344E-4
MEAN_MOTION_DDOT = 0

CCSDS_OMM_VERS = 2.0
CREATION_DATE  = 
ORIGINATOR     = 

OBJECT_NAME    = SL-8 R/B
OBJECT_ID      = 1988-053B
CENTER_NAME    = EARTH
REF_FRAME      = TEME
TIME_SYSTEM    = UTC
MEAN_ELEMENT_THEORY = SGP/SGP4

EPOCH          = 2026-03-25T10:46:42.168288
MEAN_MOTION    = 14.38926340
ECCENTRICITY   = .00215107
INCLINATION    = 74.0451
RA_OF_ASC_NODE = 83.4139
ARG_OF_PERICENTER = 260.6238
MEAN_ANOMALY   = 214.9836

EPHEMERIS_TYPE = 0
CLASSIFICATION_TYPE = U
NORAD_CAT_ID   = 19257
ELEMENT_SET_NO = 999
REV_AT_EPOCH   = 97886
BSTAR          = .11112966E-3
MEAN_MOTION_DOT = .317E-5
MEAN_MOTION_DDOT = 0

CCSDS_OMM_VERS = 2.0
CREATION_DATE  = 
ORIGINATOR     = 

OBJECT_NAME    = COSMOS 1975
OBJECT_ID      = 1988-093A
CENTER_NAME    = EARTH
REF_FRAME      = TEME
TIME_SYSTEM    = UTC
MEAN_ELEMENT_THEORY = SGP/SGP4

EPOCH          = 2026-03-25T07:24:55.719936
MEAN_MOTION    = 15.28274240
ECCENTRICITY   = .00132767
INCLINATION    = 82.5168
RA_OF_ASC_NODE = 102.0002
ARG_OF_PERICENTER = 113.1510
MEAN_ANOMALY   = 247.1130

EPHEMERIS_TYPE = 0
CLASSIFICATION_TYPE = U
NORAD_CAT_ID   = 19573
ELEMENT_SET_NO = 999
REV_AT_EPOCH   = 2179
BSTAR          = .21329819E-3
MEAN_MOTION_DOT = .5921E-4
MEAN_MOTION_DDOT = 0

CCSDS_OMM_VERS = 2.0
CREATION_DATE  = 
ORIGINATOR     = 

OBJECT_NAME    = SL-14 R/B
OBJECT_ID      = 1988-093B
CENTER_NAME    = EARTH
REF_FRAME      = TEME
TIME_SYSTEM    = UTC
MEAN_ELEMENT_THEORY = SGP/SGP4

EPOCH          = 2026-03-25T13:52:32.365632
MEAN_MOTION    = 14.85674919
ECCENTRICITY   = .00204015
INCLINATION    = 82.5335
RA_OF_ASC_NODE = 27.1305
ARG_OF_PERICENTER = 350.1083
MEAN_ANOMALY   = 182.9199

EPHEMERIS_TYPE = 0
CLASSIFICATION_TYPE = U
NORAD_CAT_ID   = 19574
ELEMENT_SET_NO = 999
REV_AT_EPOCH   = 337
BSTAR          = .62533237E-4
MEAN_MOTION_DOT = .568E-5
MEAN_MOTION_DDOT = 0

CCSDS_OMM_VERS = 2.0
CREATION_DATE  = 
ORIGINATOR     = 

OBJECT_NAME    = SL-16 R/B
OBJECT_ID      = 1988-102B
CENTER_NAME    = EARTH
REF_FRAME      = TEME
TIME_SYSTEM    = UTC
MEAN_ELEMENT_THEORY = SGP/SGP4

EPOCH          = 2026-03-25T08:58:28.555104
MEAN_MOTION    = 14.16154494
ECCENTRICITY   = .0014969
INCLINATION    = 70.9977
RA_OF_ASC_NODE = 118.4966
ARG_OF_PERICENTER = 337.7337
MEAN_ANOMALY   = 22.3135

EPHEMERIS_TYPE = 0
CLASSIFICATION_TYPE = U
NORAD_CAT_ID   = 19650
ELEMENT_SET_NO = 999
REV_AT_EPOCH   = 92911
BSTAR          = -.97743811E-4
MEAN_MOTION_DOT = -.241E-5
MEAN_MOTION_DDOT = 0

CCSDS_OMM_VERS = 2.0
CREATION_DATE  = 
ORIGINATOR     = 

OBJECT_NAME    = INTERCOSMOS 24
OBJECT_ID      = 1989-080A
CENTER_NAME    = EARTH
REF_FRAME      = TEME
TIME_SYSTEM    = UTC
MEAN_ELEMENT_THEORY = SGP/SGP4

EPOCH          = 2026-03-25T10:48:45.011808
MEAN_MOTION    = 12.59578417
ECCENTRICITY   = .11867842
INCLINATION    = 82.6011
RA_OF_ASC_NODE = 94.1376
ARG_OF_PERICENTER = 256.2030
MEAN_ANOMALY   = 90.4490

EPHEMERIS_TYPE = 0
CLASSIFICATION_TYPE = U
NORAD_CAT_ID   = 20261
ELEMENT_SET_NO = 999
REV_AT_EPOCH   = 66878
BSTAR          = .15741628E-3
MEAN_MOTION_DOT = .531E-5
MEAN_MOTION_DDOT = 0

CCSDS_OMM_VERS = 2.0
CREATION_DATE  = 
ORIGINATOR     = 

OBJECT_NAME    = SL-14 R/B
OBJECT_ID      = 1989-080C
CENTER_NAME    = EARTH
REF_FRAME      = TEME
TIME_SYSTEM    = UTC
MEAN_ELEMENT_THEORY = SGP/SGP4

EPOCH          = 2026-03-25T11:30:36.550944
MEAN_MOTION    = 12.50509070
ECCENTRICITY   = .1230873
INCLINATION    = 82.5962
RA_OF_ASC_NODE = 163.0542
ARG_OF_PERICENTER = 148.6756
MEAN_ANOMALY   = 219.4029

EPHEMERIS_TYPE = 0
CLASSIFICATION_TYPE = U
NORAD_CAT_ID   = 20262
ELEMENT_SET_NO = 999
REV_AT_EPOCH   = 66212
BSTAR          = .11675652E-3
MEAN_MOTION_DOT = .414E-5
MEAN_MOTION_DDOT = 0

CCSDS_OMM_VERS = 2.0
CREATION_DATE  = 
ORIGINATOR     = 

OBJECT_NAME    = DELTA 1 R/B
OBJECT_ID      = 1989-089B
CENTER_NAME    = EARTH
REF_FRAME      = TEME
TIME_SYSTEM    = UTC
MEAN_ELEMENT_THEORY = SGP/SGP4

EPOCH          = 2026-03-25T06:40:43.053312
MEAN_MOTION    = 14.50675426
ECCENTRICITY   = .00706408
INCLINATION    = 97.0694
RA_OF_ASC_NODE = 289.2361
ARG_OF_PERICENTER = 73.7131
MEAN_ANOMALY   = 287.1822

EPHEMERIS_TYPE = 0
CLASSIFICATION_TYPE = U
NORAD_CAT_ID   = 20323
ELEMENT_SET_NO = 999
REV_AT_EPOCH   = 89799
BSTAR          = .87072651E-4
MEAN_MOTION_DOT = .318E-5
MEAN_MOTION_DDOT = 0

CCSDS_OMM_VERS = 2.0
CREATION_DATE  = 
ORIGINATOR     = 

OBJECT_NAME    = ARIANE 40 R/B
OBJECT_ID      = 1990-005H
CENTER_NAME    = EARTH
REF_FRAME      = TEME
TIME_SYSTEM    = UTC
MEAN_ELEMENT_THEORY = SGP/SGP4

EPOCH          = 2026-03-25T14:06:39.578112
MEAN_MOTION    = 14.39880608
ECCENTRICITY   = .00108316
INCLINATION    = 98.3050
RA_OF_ASC_NODE = 144.7732
ARG_OF_PERICENTER = 151.5722
MEAN_ANOMALY   = 208.6059

EPHEMERIS_TYPE = 0
CLASSIFICATION_TYPE = U
NORAD_CAT_ID   = 20443
ELEMENT_SET_NO = 999
REV_AT_EPOCH   = 89509
BSTAR          = .98758868E-4
MEAN_MOTION_DOT = .268E-5
MEAN_MOTION_DDOT = 0

CCSDS_OMM_VERS = 2.0
CREATION_DATE  = 
ORIGINATOR     = 

OBJECT_NAME    = DELTA 2 R/B(1)
OBJECT_ID      = 1990-008B
CENTER_NAME    = EARTH
REF_FRAME      = TEME
TIME_SYSTEM    = UTC
MEAN_ELEMENT_THEORY = SGP/SGP4

EPOCH          = 2026-03-25T08:10:59.921184
MEAN_MOTION    = 15.57981471
ECCENTRICITY   = .00790563
INCLINATION    = 35.6038
RA_OF_ASC_NODE = 71.9795
ARG_OF_PERICENTER = 44.5824
MEAN_ANOMALY   = 316.1238

EPHEMERIS_TYPE = 0
CLASSIFICATION_TYPE = U
NORAD_CAT_ID   = 20453
ELEMENT_SET_NO = 999
REV_AT_EPOCH   = 92857
BSTAR          = .72555971E-3
MEAN_MOTION_DOT = .65596E-3
MEAN_MOTION_DDOT = 0

